[{"OBJECT_NAME":"STARLINK-31260","OBJECT_ID":"2024-020F","EPOCH":"2026-03-09T21:22:23.717856","MEAN_MOTION":15.30200171,"ECCENTRICITY":1.897e-5,"INCLINATION":53.1625,"RA_OF_ASC_NODE":321.3594,"ARG_OF_PERICENTER":190.3877,"MEAN_ANOMALY":169.712,"EPHEMERIS_TYPE":0,"CLASSIFICATION_TYPE":"U","NORAD_CAT_ID":58881,"ELEMENT_SET_NO":999,"REV_AT_EPOCH":11810,"BSTAR":0.0001446134,"MEAN_MOTION_DOT":3.927e-5,"MEAN_MOTION_DDOT":0},{"OBJECT_NAME":"OBJECT D","OBJECT_ID":"2024-092D","EPOCH":"2026-03-09T21:12:33.501312","MEAN_MOTION":15.33078357,"ECCENTRICITY":0.00083397,"INCLINATION":97.6418,"RA_OF_ASC_NODE":198.2302,"ARG_OF_PERICENTER":141.9853,"MEAN_ANOMALY":218.1979,"EPHEMERIS_TYPE":0,"CLASSIFICATION_TYPE":"U","NORAD_CAT_ID":59776,"ELEMENT_SET_NO":999,"REV_AT_EPOCH":10051,"BSTAR":0.00076511005,"MEAN_MOTION_DOT":0.00024443,"MEAN_MOTION_DDOT":0}]
